{
  "type": "FeatureCollection",
  "features": [
    {
      "type": "Feature",
      "properties": {
        "norad_id": 67074,
        "name": "ELECTRON KICK STAGE R/B",
        "group": "last-30-days",
        "lat": 18.22306946204452,
        "lon": 143.85991246805725,
        "alt_km": 503.79675449714614,
        "timestamp": "2025-12-24T07:45:04.935611+00:00",
        "meta_object_name": "ELECTRON KICK STAGE R/B",
        "meta_object_id": "2025-297C",
        "meta_epoch": "2025-12-23T22:25:39.248256",
        "meta_mean_motion": 15.58899365,
        "meta_eccentricity": 0.01928355,
        "meta_inclination": 97.4821,
        "meta_ra_of_asc_node": 145.9309,
        "meta_arg_of_pericenter": 228.859,
        "meta_mean_anomaly": 129.5889,
        "meta_ephemeris_type": 0,
        "meta_classification_type": "U",
        "meta_norad_cat_id": 67074,
        "meta_element_set_no": 999,
        "meta_rev_at_epoch": 152,
        "meta_bstar": 0.0017255525,
        "meta_mean_motion_dot": 0.00333191,
        "meta_mean_motion_ddot": 3.1943492e-05,
        "tle_line1": "1 67074U 25297C   25357.93448204  .00333191  31943-4  17256-2 0  9992",
        "tle_line2": "2 67074  97.4821 145.9309 0192835 228.8590 129.5889 15.58899365  1529"
      },
      "geometry": {
        "type": "Point",
        "coordinates": [
          143.85991246805725,
          18.22306946204452
        ]
      }
    },
    {
      "type": "Feature",
      "properties": {
        "norad_id": 67075,
        "name": "STARLINK-36230",
        "group": "last-30-days",
        "lat": 49.393853555265245,
        "lon": -117.78555589443107,
        "alt_km": 315.4427370111207,
        "timestamp": "2025-12-24T07:45:04.935627+00:00",
        "meta_object_name": "STARLINK-36230",
        "meta_object_id": "2025-298A",
        "meta_epoch": "2025-12-23T22:00:01.999584",
        "meta_mean_motion": 15.85731984,
        "meta_eccentricity": 0.00038463,
        "meta_inclination": 69.9967,
        "meta_ra_of_asc_node": 218.2345,
        "meta_arg_of_pericenter": 269.845,
        "meta_mean_anomaly": 346.6091,
        "meta_ephemeris_type": 0,
        "meta_classification_type": "U",
        "meta_norad_cat_id": 67075,
        "meta_element_set_no": 999,
        "meta_rev_at_epoch": 277,
        "meta_bstar": -0.0079988551,
        "meta_mean_motion_dot": -0.01695758,
        "meta_mean_motion_ddot": 0,
        "tle_line1": "1 67075U 25298A   25357.91668981 -.01695758  00000+0 -79989-2 0  9997",
        "tle_line2": "2 67075  69.9967 218.2345 0003846 269.8450 346.6091 15.85731984  2779"
      },
      "geometry": {
        "type": "Point",
        "coordinates": [
          -117.78555589443107,
          49.393853555265245
        ]
      }
    },
    {
      "type": "Feature",
      "properties": {
        "norad_id": 67076,
        "name": "STARLINK-36240",
        "group": "last-30-days",
        "lat": 51.03308153070423,
        "lon": -116.16540273405343,
        "alt_km": 315.2592920396464,
        "timestamp": "2025-12-24T07:45:04.935638+00:00",
        "meta_object_name": "STARLINK-36240",
        "meta_object_id": "2025-298B",
        "meta_epoch": "2025-12-23T22:00:01.999584",
        "meta_mean_motion": 15.85732192,
        "meta_eccentricity": 0.00038347,
        "meta_inclination": 69.9967,
        "meta_ra_of_asc_node": 218.2321,
        "meta_arg_of_pericenter": 269.6611,
        "meta_mean_anomaly": 348.7319,
        "meta_ephemeris_type": 0,
        "meta_classification_type": "U",
        "meta_norad_cat_id": 67076,
        "meta_element_set_no": 999,
        "meta_rev_at_epoch": 277,
        "meta_bstar": -0.0080041417,
        "meta_mean_motion_dot": -0.0169673,
        "meta_mean_motion_ddot": 0,
        "tle_line1": "1 67076U 25298B   25357.91668981 -.01696730  00000+0 -80041-2 0  9990",
        "tle_line2": "2 67076  69.9967 218.2321 0003834 269.6611 348.7319 15.85732192  2776"
      },
      "geometry": {
        "type": "Point",
        "coordinates": [
          -116.16540273405343,
          51.03308153070423
        ]
      }
    },
    {
      "type": "Feature",
      "properties": {
        "norad_id": 67077,
        "name": "STARLINK-36243",
        "group": "last-30-days",
        "lat": 52.920998490446905,
        "lon": -114.11723181358927,
        "alt_km": 315.07996420543714,
        "timestamp": "2025-12-24T07:45:04.935648+00:00",
        "meta_object_name": "STARLINK-36243",
        "meta_object_id": "2025-298C",
        "meta_epoch": "2025-12-23T22:00:01.999584",
        "meta_mean_motion": 15.85723555,
        "meta_eccentricity": 0.00038696,
        "meta_inclination": 69.9963,
        "meta_ra_of_asc_node": 218.2293,
        "meta_arg_of_pericenter": 270.8061,
        "meta_mean_anomaly": 349.8703,
        "meta_ephemeris_type": 0,
        "meta_classification_type": "U",
        "meta_norad_cat_id": 67077,
        "meta_element_set_no": 999,
        "meta_rev_at_epoch": 277,
        "meta_bstar": -0.0080276543,
        "meta_mean_motion_dot": -0.01700472,
        "meta_mean_motion_ddot": 0,
        "tle_line1": "1 67077U 25298C   25357.91668981 -.01700472  00000+0 -80277-2 0  9991",
        "tle_line2": "2 67077  69.9963 218.2293 0003869 270.8061 349.8703 15.85723555  2774"
      },
      "geometry": {
        "type": "Point",
        "coordinates": [
          -114.11723181358927,
          52.920998490446905
        ]
      }
    },
    {
      "type": "Feature",
      "properties": {
        "norad_id": 67078,
        "name": "STARLINK-36236",
        "group": "last-30-days",
        "lat": 54.3846610248133,
        "lon": -112.37185127586807,
        "alt_km": 314.9071627088306,
        "timestamp": "2025-12-24T07:45:04.935658+00:00",
        "meta_object_name": "STARLINK-36236",
        "meta_object_id": "2025-298D",
        "meta_epoch": "2025-12-23T22:00:01.999584",
        "meta_mean_motion": 15.85730599,
        "meta_eccentricity": 0.00038612,
        "meta_inclination": 69.9967,
        "meta_ra_of_asc_node": 218.2272,
        "meta_arg_of_pericenter": 270.2778,
        "meta_mean_anomaly": 352.1779,
        "meta_ephemeris_type": 0,
        "meta_classification_type": "U",
        "meta_norad_cat_id": 67078,
        "meta_element_set_no": 999,
        "meta_rev_at_epoch": 277,
        "meta_bstar": -0.0080114809,
        "meta_mean_motion_dot": -0.01697997,
        "meta_mean_motion_ddot": 0,
        "tle_line1": "1 67078U 25298D   25357.91668981 -.01697997  00000+0 -80115-2 0  9990",
        "tle_line2": "2 67078  69.9967 218.2272 0003861 270.2778 352.1779 15.85730599  2773"
      },
      "geometry": {
        "type": "Point",
        "coordinates": [
          -112.37185127586807,
          54.3846610248133
        ]
      }
    },
    {
      "type": "Feature",
      "properties": {
        "norad_id": 67079,
        "name": "STARLINK-36159",
        "group": "last-30-days",
        "lat": 56.21161603613186,
        "lon": -109.95704212445582,
        "alt_km": 314.7066732605563,
        "timestamp": "2025-12-24T07:45:04.935668+00:00",
        "meta_object_name": "STARLINK-36159",
        "meta_object_id": "2025-298E",
        "meta_epoch": "2025-12-23T22:00:01.999584",
        "meta_mean_motion": 15.85710486,
        "meta_eccentricity": 0.00037582,
        "meta_inclination": 69.9967,
        "meta_ra_of_asc_node": 218.2247,
        "meta_arg_of_pericenter": 269.8451,
        "meta_mean_anomaly": 354.9212,
        "meta_ephemeris_type": 0,
        "meta_classification_type": "U",
        "meta_norad_cat_id": 67079,
        "meta_element_set_no": 999,
        "meta_rev_at_epoch": 277,
        "meta_bstar": -0.0079890048,
        "meta_mean_motion_dot": -0.01692293,
        "meta_mean_motion_ddot": 0,
        "tle_line1": "1 67079U 25298E   25357.91668981 -.01692293  00000+0 -79890-2 0  9993",
        "tle_line2": "2 67079  69.9967 218.2247 0003758 269.8451 354.9212 15.85710486  2778"
      },
      "geometry": {
        "type": "Point",
        "coordinates": [
          -109.95704212445582,
          56.21161603613186
        ]
      }
    },
    {
      "type": "Feature",
      "properties": {
        "norad_id": 67080,
        "name": "STARLINK-36158",
        "group": "last-30-days",
        "lat": 57.8924840022292,
        "lon": -107.45366121140596,
        "alt_km": 314.52836039249996,
        "timestamp": "2025-12-24T07:45:04.935689+00:00",
        "meta_object_name": "STARLINK-36158",
        "meta_object_id": "2025-298F",
        "meta_epoch": "2025-12-23T22:00:01.999584",
        "meta_mean_motion": 15.85701594,
        "meta_eccentricity": 0.00038318,
        "meta_inclination": 69.9965,
        "meta_ra_of_asc_node": 218.2219,
        "meta_arg_of_pericenter": 273.4319,
        "meta_mean_anomaly": 353.5044,
        "meta_ephemeris_type": 0,
        "meta_classification_type": "U",
        "meta_norad_cat_id": 67080,
        "meta_element_set_no": 999,
        "meta_rev_at_epoch": 271,
        "meta_bstar": -0.0079819469,
        "meta_mean_motion_dot": -0.0169045,
        "meta_mean_motion_ddot": 0,
        "tle_line1": "1 67080U 25298F   25357.91668981 -.01690450  00000+0 -79819-2 0  9999",
        "tle_line2": "2 67080  69.9965 218.2219 0003831 273.4319 353.5044 15.85701594  2715"
      },
      "geometry": {
        "type": "Point",
        "coordinates": [
          -107.45366121140596,
          57.8924840022292
        ]
      }
    }
  ]
}